{"type": "FeatureCollection", "features": [ {"type": "Feature", "properties": {"norad_id": 30283, "name": "FENGYUN 1C DEB", "group": "fengyun-1c-debris", "lat": 61.214662649346415, "lon": -175.41219483505537, "alt_km": 892.5316920063115, "timestamp": "2025-12-20T14:38:02.245044+00:00", "meta": {"OBJECT_NAME": "FENGYUN 1C DEB", "OBJECT_ID": "1999-025YU", "EPOCH": "2025-12-19T22:55:19.564320", "MEAN_MOTION": 14.01976773, "ECCENTRICITY": 0.0184535, "INCLINATION": 98.8667, "RA_OF_ASC_NODE": 347.445, "ARG_OF_PERICENTER": 23.2666, "MEAN_ANOMALY": 29.749, "EPHEMERIS_TYPE": 0, "CLASSIFICATION_TYPE": "U", "NORAD_CAT_ID": 30283, "ELEMENT_SET_NO": 999, "REV_AT_EPOCH": 96792, "BSTAR": 4.182e-05, "MEAN_MOTION_DOT": 3.1e-07, "MEAN_MOTION_DDOT": 0}, "tle": {"line1": "1 30283U 99025YU  25353.95508755  .00000031  00000+0  41820-4 0  9995", "line2": "2 30283  98.8667 347.4450 0184535  23.2666  29.7490 14.01976773967929"}}, "geometry": {"type": "Point", "coordinates": [-175.41219483505537, 61.214662649346415]}}, {"type": "Feature", "properties": {"norad_id": 30284, "name": "FENGYUN 1C DEB", "group": "fengyun-1c-debris", "lat": 13.78869665857165, "lon": 60.88986080174081, "alt_km": 788.3878061643718, "timestamp": "2025-12-20T14:38:02.245055+00:00", "meta": {"OBJECT_NAME": "FENGYUN 1C DEB", "OBJECT_ID": "1999-025YV", "EPOCH": "2025-12-18T16:12:56.542752", "MEAN_MOTION": 14.28802288, "ECCENTRICITY": 0.00373312, "INCLINATION": 98.7206, "RA_OF_ASC_NODE": 61.1153, "ARG_OF_PERICENTER": 91.9018, "MEAN_ANOMALY": 59.8086, "EPHEMERIS_TYPE": 0, "CLASSIFICATION_TYPE": "U", "NORAD_CAT_ID": 30284, "ELEMENT_SET_NO": 999, "REV_AT_EPOCH": 97600, "BSTAR": 0.0010740824, "MEAN_MOTION_DOT": 2.683e-05, "MEAN_MOTION_DDOT": 0}, "tle": {"line1": "1 30284U 99025YV  25352.67565443  .00002683  00000+0  10741-2 0  9992", "line2": "2 30284  98.7206  61.1153 0037331  91.9018  59.8086 14.28802288976004"}}, "geometry": {"type": "Point", "coordinates": [60.88986080174081, 13.78869665857165]}}, {"type": "Feature", "properties": {"norad_id": 30286, "name": "FENGYUN 1C DEB", "group": "fengyun-1c-debris", "lat": -10.49029771389358, "lon": 0.36051597633910787, "alt_km": 878.2703555987446, "timestamp": "2025-12-20T14:38:02.245065+00:00", "meta": {"OBJECT_NAME": "FENGYUN 1C DEB", "OBJECT_ID": "1999-025YX", "EPOCH": "2025-12-19T22:02:52.941984", "MEAN_MOTION": 14.12725887, "ECCENTRICITY": 0.0064918, "INCLINATION": 98.6898, "RA_OF_ASC_NODE": 358.0673, "ARG_OF_PERICENTER": 112.6086, "MEAN_ANOMALY": 324.798, "EPHEMERIS_TYPE": 0, "CLASSIFICATION_TYPE": "U", "NORAD_CAT_ID": 30286, "ELEMENT_SET_NO": 999, "REV_AT_EPOCH": 97560, "BSTAR": 6.385e-05, "MEAN_MOTION_DOT": 7.9e-07, "MEAN_MOTION_DDOT": 0}, "tle": {"line1": "1 30286U 99025YX  25353.91866831  .00000079  00000+0  63850-4 0  9995", "line2": "2 30286  98.6898 358.0673 0064918 112.6086 324.7980 14.12725887975608"}}, "geometry": {"type": "Point", "coordinates": [0.36051597633910787, -10.49029771389358]}}, {"type": "Feature", "properties": {"norad_id": 30287, "name": "FENGYUN 1C DEB", "group": "fengyun-1c-debris", "lat": 39.05860918638205, "lon": 20.94393923360648, "alt_km": 791.7847861037371, "timestamp": "2025-12-20T14:38:02.245075+00:00", "meta": {"OBJECT_NAME": "FENGYUN 1C DEB", "OBJECT_ID": "1999-025YY", "EPOCH": "2025-12-20T00:41:53.610144", "MEAN_MOTION": 13.68609694, "ECCENTRICITY": 0.04130186, "INCLINATION": 98.6367, "RA_OF_ASC_NODE": 27.5066, "ARG_OF_PERICENTER": 352.9266, "MEAN_ANOMALY": 63.9465, "EPHEMERIS_TYPE": 0, "CLASSIFICATION_TYPE": "U", "NORAD_CAT_ID": 30287, "ELEMENT_SET_NO": 999, "REV_AT_EPOCH": 93958, "BSTAR": 0.00072755875, "MEAN_MOTION_DOT": 1.096e-05, "MEAN_MOTION_DDOT": 0}, "tle": {"line1": "1 30287U 99025YY  25354.02909271  .00001096  00000+0  72756-3 0  9999", "line2": "2 30287  98.6367  27.5066 0413018 352.9266  63.9465 13.68609694939586"}}, "geometry": {"type": "Point", "coordinates": [20.94393923360648, 39.05860918638205]}}, {"type": "Feature", "properties": {"norad_id": 30288, "name": "FENGYUN 1C DEB", "group": "fengyun-1c-debris", "lat": -31.409627002263804, "lon": 82.71866185424918, "alt_km": 775.789952068194, "timestamp": "2025-12-20T14:38:02.245085+00:00", "meta": {"OBJECT_NAME": "FENGYUN 1C DEB", "OBJECT_ID": "1999-025YZ", "EPOCH": "2025-12-19T16:05:03.704928", "MEAN_MOTION": 14.32642832, "ECCENTRICITY": 0.0021159, "INCLINATION": 99.3957, "RA_OF_ASC_NODE": 75.8981, "ARG_OF_PERICENTER": 300.4874, "MEAN_ANOMALY": 224.4757, "EPHEMERIS_TYPE": 0, "CLASSIFICATION_TYPE": "U", "NORAD_CAT_ID": 30288, "ELEMENT_SET_NO": 999, "REV_AT_EPOCH": 97668, "BSTAR": 0.0012356, "MEAN_MOTION_DOT": 3.317e-05, "MEAN_MOTION_DDOT": 0}, "tle": {"line1": "1 30288U 99025YZ  25353.67018177  .00003317  00000+0  12356-2 0  9993", "line2": "2 30288  99.3957  75.8981 0021159 300.4874 224.4757 14.32642832976689"}}, "geometry": {"type": "Point", "coordinates": [82.71866185424918, -31.409627002263804]}}, {"type": "Feature", "properties": {"norad_id": 30289, "name": "FENGYUN 1C DEB", "group": "fengyun-1c-debris", "lat": -80.26715663493812, "lon": -155.15600196949697, "alt_km": 792.1475903252567, "timestamp": "2025-12-20T14:38:02.245095+00:00", "meta": {"OBJECT_NAME": "FENGYUN 1C DEB", "OBJECT_ID": "1999-025ZA", "EPOCH": "2025-12-19T12:44:31.279776", "MEAN_MOTION": 14.25881261, "ECCENTRICITY": 0.0037687, "INCLINATION": 98.9269, "RA_OF_ASC_NODE": 90.1456, "ARG_OF_PERICENTER": 309.5741, "MEAN_ANOMALY": 182.095, "EPHEMERIS_TYPE": 0, "CLASSIFICATION_TYPE": "U", "NORAD_CAT_ID": 30289, "ELEMENT_SET_NO": 999, "REV_AT_EPOCH": 97178, "BSTAR": 0.0013985, "MEAN_MOTION_DOT": 3.309e-05, "MEAN_MOTION_DDOT": 0}, "tle": {"line1": "1 30289U 99025ZA  25353.53091759  .00003309  00000+0  13985-2 0  9996", "line2": "2 30289  98.9269  90.1456 0037687 309.5741 182.0950 14.25881261971787"}}, "geometry": {"type": "Point", "coordinates": [-155.15600196949697, -80.26715663493812]}}, {"type": "Feature", "properties": {"norad_id": 30290, "name": "FENGYUN 1C DEB", "group": "fengyun-1c-debris", "lat": -36.12737666350918, "lon": 110.18747879233517, "alt_km": 644.4923272232427, "timestamp": "2025-12-20T14:38:02.245106+00:00", "meta": {"OBJECT_NAME": "FENGYUN 1C DEB", "OBJECT_ID": "1999-025ZB", "EPOCH": "2025-12-19T06:22:36.153408", "MEAN_MOTION": 14.75293189, "ECCENTRICITY": 0.0016679, "INCLINATION": 102.6228, "RA_OF_ASC_NODE": 98.6861, "ARG_OF_PERICENTER": 27.5364, "MEAN_ANOMALY": 0.7265, "EPHEMERIS_TYPE": 0, "CLASSIFICATION_TYPE": "U", "NORAD_CAT_ID": 30290, "ELEMENT_SET_NO": 999, "REV_AT_EPOCH": 97975, "BSTAR": 0.0031569, "MEAN_MOTION_DOT": 0.00021408, "MEAN_MOTION_DDOT": 0}, "tle": {"line1": "1 30290U 99025ZB  25353.26569622  .00021408  00000+0  31569-2 0  9995", "line2": "2 30290 102.6228  98.6861 0016679  27.5364   0.7265 14.75293189979757"}}, "geometry": {"type": "Point", "coordinates": [110.18747879233517, -36.12737666350918]}}, {"type": "Feature", "properties": {"norad_id": 30291, "name": "FENGYUN 1C DEB", "group": "fengyun-1c-debris", "lat": -26.587216426130983, "lon": 58.706419352045636, "alt_km": 780.1982658451243, "timestamp": "2025-12-20T14:38:02.245116+00:00", "meta": {"OBJECT_NAME": "FENGYUN 1C DEB", "OBJECT_ID": "1999-025ZC", "EPOCH": "2025-12-20T04:28:32.168352", "MEAN_MOTION": 14.55406068, "ECCENTRICITY": 0.01111445, "INCLINATION": 97.2324, "RA_OF_ASC_NODE": 241.9835, "ARG_OF_PERICENTER": 355.8968, "MEAN_ANOMALY": 155.15, "EPHEMERIS_TYPE": 0, "CLASSIFICATION_TYPE": "U", "NORAD_CAT_ID": 30291, "ELEMENT_SET_NO": 999, "REV_AT_EPOCH": 97816, "BSTAR": 0.0017651834, "MEAN_MOTION_DOT": 8.299e-05, "MEAN_MOTION_DDOT": 0}, "tle": {"line1": "1 30291U 99025ZC  25354.18648343  .00008299  00000+0  17652-2 0  9996", "line2": "2 30291  97.2324 241.9835 0111144 355.8968 155.1500 14.55406068978169"}}, "geometry": {"type": "Point", "coordinates": [58.706419352045636, -26.587216426130983]}}, {"type": "Feature", "properties": {"norad_id": 30293, "name": "FENGYUN 1C DEB", "group": "fengyun-1c-debris", "lat": -72.94280693585335, "lon": -141.61033111081287, "alt_km": 789.4118489879083, "timestamp": "2025-12-20T14:38:02.245126+00:00", "meta": {"OBJECT_NAME": "FENGYUN 1C DEB", "OBJECT_ID": "1999-025ZE", "EPOCH": "2025-12-20T02:18:58.818240", "MEAN_MOTION": 14.489825, "ECCENTRICITY": 0.00768109, "INCLINATION": 99.2542, "RA_OF_ASC_NODE": 185.728, "ARG_OF_PERICENTER": 92.9478, "MEAN_ANOMALY": 35.992, "EPHEMERIS_TYPE": 0, "CLASSIFICATION_TYPE": "U", "NORAD_CAT_ID": 30293, "ELEMENT_SET_NO": 999, "REV_AT_EPOCH": 99083, "BSTAR": 0.00048065447, "MEAN_MOTION_DOT": 1.836e-05, "MEAN_MOTION_DDOT": 0}, "tle": {"line1": "1 30293U 99025ZE  25354.09651410  .00001836  00000+0  48065-3 0  9990", "line2": "2 30293  99.2542 185.7280 0076810  92.9478  35.9920 14.48982500990830"}}, "geometry": {"type": "Point", "coordinates": [-141.61033111081287, -72.94280693585335]}}, {"type": "Feature", "properties": {"norad_id": 30294, "name": "FENGYUN 1C DEB", "group": "fengyun-1c-debris", "lat": 12.551156301717183, "lon": 164.4808931006509, "alt_km": 842.4089046300642, "timestamp": "2025-12-20T14:38:02.245136+00:00", "meta": {"OBJECT_NAME": "FENGYUN 1C DEB", "OBJECT_ID": "1999-025ZF", "EPOCH": "2025-12-19T22:54:24.148224", "MEAN_MOTION": 14.3496919, "ECCENTRICITY": 0.01972255, "INCLINATION": 98.3563, "RA_OF_ASC_NODE": 341.971, "ARG_OF_PERICENTER": 288.0661, "MEAN_ANOMALY": 97.862, "EPHEMERIS_TYPE": 0, "CLASSIFICATION_TYPE": "U", "NORAD_CAT_ID": 30294, "ELEMENT_SET_NO": 999, "REV_AT_EPOCH": 98640, "BSTAR": 0.00025762198, "MEAN_MOTION_DOT": 8.62e-06, "MEAN_MOTION_DDOT": 0}, "tle": {"line1": "1 30294U 99025ZF  25353.95444616  .00000862  00000+0  25762-3 0  9990", "line2": "2 30294  98.3563 341.9710 0197225 288.0661  97.8620 14.34969190986401"}}, "geometry": {"type": "Point", "coordinates": [164.4808931006509, 12.551156301717183]}}]}